[{"OBJECT_NAME":"STARLINK-30500","OBJECT_ID":"2023-160B","EPOCH":"2026-03-09T01:54:49.318272","MEAN_MOTION":15.26745168,"ECCENTRICITY":9.546e-5,"INCLINATION":42.9967,"RA_OF_ASC_NODE":81.2229,"ARG_OF_PERICENTER":267.733,"MEAN_ANOMALY":92.3412,"EPHEMERIS_TYPE":0,"CLASSIFICATION_TYPE":"U","NORAD_CAT_ID":58076,"ELEMENT_SET_NO":999,"REV_AT_EPOCH":13285,"BSTAR":-5.1834422e-5,"MEAN_MOTION_DOT":-1.65e-5,"MEAN_MOTION_DDOT":0},{"OBJECT_NAME":"XCUBE-1","OBJECT_ID":"2024-247Z","EPOCH":"2026-03-09T11:35:28.885344","MEAN_MOTION":15.27910558,"ECCENTRICITY":0.00052355,"INCLINATION":44.9938,"RA_OF_ASC_NODE":117.7807,"ARG_OF_PERICENTER":331.1499,"MEAN_ANOMALY":28.9094,"EPHEMERIS_TYPE":0,"CLASSIFICATION_TYPE":"U","NORAD_CAT_ID":62400,"ELEMENT_SET_NO":999,"REV_AT_EPOCH":6770,"BSTAR":0.00036224252,"MEAN_MOTION_DOT":9.773e-5,"MEAN_MOTION_DDOT":0}]
